ORBCOMM FM103 [+]       
1 40091U 14040F   23238.44384326  .00000638  00000+0  18177-3 0  9998
2 40091  47.0050 252.0750 0001173 160.0093 200.0838 14.55839347467753
ORBCOMM FM114 [+]       
1 41179U 15081A   23238.20547769  .00000885  00000+0  23743-3 0  9997
2 41179  47.0026 162.5736 0001512 216.9722 143.1058 14.55853611408082
ORBCOMM FM119 [-]       
1 41180U 15081B   23238.58356124  .00000681  00000+0  19155-3 0  9999
2 41180  47.0011  69.9856 0001920 263.5939  96.4727 14.55836173409394
ORBCOMM FM105 [-]       
1 41181U 15081C   23238.48740108  .00000343  00000+0  14516-3 0  9999
2 41181  47.0032  14.1044 0002498 243.2693 116.7931 14.43984693405221
ORBCOMM FM110 [+]       
1 41182U 15081D   23238.18222871  .00001013  00000+0  26640-3 0  9995
2 41182  47.0016 162.1121 0002038   6.9653 353.1260 14.55843617407951
ORBCOMM FM118 [+]       
1 41183U 15081E   23238.22844003  .00000970  00000+0  25681-3 0  9993
2 41183  47.0036 162.1522 0002287   6.9301 353.1615 14.55850965408066
ORBCOMM FM112 [+]       
1 41184U 15081F   23238.56169788  .00000794  00000+0  21705-3 0  9998
2 41184  46.9988  69.3548 0001799 243.0700 117.0000 14.55833186409333
ORBCOMM FM113 [+]       
1 41185U 15081G   23238.53828239  .00000902  00000+0  24134-3 0  9999
2 41185  47.0009  69.6815 0001476 255.7006 104.3715 14.55846279409318
